      2.10          N: GNSS NAV DATA                        RINEX VERSION / TYPE
fic2rin                                 12/14/2021 00:17:39 PGM / RUN BY / DATE
                                                            END OF HEADER
 6 21 12 13 12  0  0.0 1.416457816958e-04 1.000444171950e-11 0.000000000000e+00
    6.200000000000e+01-3.556250000000e+01 3.868018261344e-09-8.934940843579e-01
   -1.976266503334e-06 2.494639367796e-03 9.771436452866e-06 5.153632108688e+03
    1.296000000000e+05-3.725290298462e-08-7.914585824211e-01-3.725290298462e-08
    9.858650111092e-01 2.067500000000e+02-1.029477135752e+00-7.716750005041e-09
    1.703642392115e-10 1.000000000000e+00 2.188000000000e+03 0.000000000000e+00
    2.400000000000e+00 0.000000000000e+00 4.190951585770e-09 6.200000000000e+01
    1.224000000000e+05 4.000000000000e+00
 7 21 12 13 12  0  0.0 2.902927808464e-04 4.547473508865e-12 0.000000000000e+00
    4.200000000000e+01 3.762500000000e+01 4.428755904031e-09-1.936565733073e+00
    1.775100827217e-06 1.535868237261e-02 1.093558967113e-05 5.153719079971e+03
    1.296000000000e+05 1.676380634308e-07 2.353010705003e+00-1.732259988785e-07
    9.511067855981e-01 1.606562500000e+02-2.299748403215e+00-7.715678531838e-09
   -2.500104139373e-12 1.000000000000e+00 2.188000000000e+03 0.000000000000e+00
    2.400000000000e+00 0.000000000000e+00-1.117587089539e-08 4.200000000000e+01
    1.224000000000e+05 4.000000000000e+00
 4 21 12 13 12  0  0.0-1.991698518395e-04 1.250555214938e-12 0.000000000000e+00
    2.230000000000e+02-4.484375000000e+01 4.757341019492e-09 5.619959186430e-01
   -2.417713403702e-06 1.589659485035e-03 7.357448339462e-06 5.153667758942e+03
    1.296000000000e+05 1.117587089539e-08 1.333186164601e+00-2.235174179077e-08
    9.604917971387e-01 2.334375000000e+02-3.133423403045e+00-8.164268645988e-09
   -3.950164540209e-10 1.000000000000e+00 2.188000000000e+03 0.000000000000e+00
    2.400000000000e+00 0.000000000000e+00-4.190951585770e-09 7.350000000000e+02
    1.224000000000e+05 4.000000000000e+00
30 21 12 13 12  0  0.0-4.989602603018e-04-2.955857780762e-12 0.000000000000e+00
    1.900000000000e+01 3.778125000000e+01 4.827701093128e-09-1.955125910796e+00
    1.836568117142e-06 5.366271012463e-03 1.085363328457e-05 5.153612136841e+03
    1.296000000000e+05-1.862645149231e-09 2.367133657624e+00-6.705522537231e-08
    9.362911120087e-01 1.561562500000e+02-2.751064090279e+00-8.060335745337e-09
   -5.714523747137e-11 1.000000000000e+00 2.188000000000e+03 0.000000000000e+00
    2.400000000000e+00 0.000000000000e+00 3.725290298462e-09 1.900000000000e+01
    1.224000000000e+05 4.000000000000e+00
16 21 12 13 12  0  0.0-4.396452568471e-04-6.025402399246e-12 0.000000000000e+00
    3.900000000000e+01 6.381250000000e+01 4.458399995970e-09 1.802977108456e+00
    3.241002559662e-06 1.246909215115e-02 5.226582288742e-06 5.153571905136e+03
    1.296000000000e+05-2.570450305939e-07-2.799761740949e+00-1.676380634308e-08
    9.714251026576e-01 2.885625000000e+02 6.882892092540e-01-8.240343243372e-09
    5.321650239522e-11 1.000000000000e+00 2.188000000000e+03 0.000000000000e+00
    2.400000000000e+00 0.000000000000e+00-1.024454832077e-08 3.900000000000e+01
    1.224000000000e+05 4.000000000000e+00
17 21 12 13 12  0  0.0 5.468572489917e-04 5.343281372916e-12 0.000000000000e+00
    2.000000000000e+01-5.350000000000e+01 4.184817171576e-09 9.475216122613e-01
   -2.896413207054e-06 1.378558529541e-02 5.587935447693e-06 5.153719114304e+03
    1.296000000000e+05-1.676380634308e-07-1.781093015548e+00-1.881271600723e-07
    9.802552966649e-01 2.825000000000e+02-1.524055747451e+00-8.263915653829e-09
   -2.478674675321e-10 1.000000000000e+00 2.188000000000e+03 0.000000000000e+00
    2.400000000000e+00 0.000000000000e+00-1.117587089539e-08 2.000000000000e+01
    1.224000000000e+05 4.000000000000e+00
12 21 12 13 12  0  0.0-1.401365734637e-04-5.570655048359e-12 0.000000000000e+00
    4.700000000000e+01 6.343750000000e+01 4.311965324949e-09-2.616072569649e+00
    3.324821591377e-06 8.445817977190e-03 4.945322871208e-06 5.153639657974e+03
    1.296000000000e+05 1.005828380585e-07-2.818411573606e+00-9.313225746155e-09
    9.714552753430e-01 2.893437500000e+02 1.232306242136e+00-7.968903365383e-09
    1.500062483624e-10 1.000000000000e+00 2.188000000000e+03 0.000000000000e+00
    2.400000000000e+00 0.000000000000e+00-1.257285475731e-08 4.700000000000e+01
    1.224000000000e+05 4.000000000000e+00
10 21 12 13 12  0  0.0-2.677119337022e-04-8.981260180008e-12 0.000000000000e+00
    6.600000000000e+01 1.156250000000e+00 4.472329147603e-09 3.015787954211e+00
    5.587935447693e-08 7.319591008127e-03 6.642192602158e-06 5.153675613403e+03
    1.296000000000e+05-2.607703208923e-08 2.492377774110e-01-8.754432201385e-08
    9.718244646641e-01 2.591875000000e+02-2.559875453773e+00-7.908900866038e-09
    3.335853237391e-10 1.000000000000e+00 2.188000000000e+03 0.000000000000e+00
    2.400000000000e+00 0.000000000000e+00 2.328306436539e-09 6.600000000000e+01
    1.224000000000e+05 4.000000000000e+00
 9 21 12 13 12  0  0.0-3.605117090046e-04 6.821210263297e-13 0.000000000000e+00
    7.200000000000e+01-4.415625000000e+01 4.912347476133e-09 1.350929843856e+00
   -2.445653080940e-06 2.377869910561e-03 7.098540663719e-06 5.153654199600e+03
    1.296000000000e+05 1.490116119385e-08 1.280722387868e+00-5.960464477539e-08
    9.534665821788e-01 2.364687500000e+02 1.844633684671e+00-8.230699984549e-09
   -3.367997433469e-10 1.000000000000e+00 2.188000000000e+03 0.000000000000e+00
    2.400000000000e+00 0.000000000000e+00 1.396983861923e-09 7.200000000000e+01
    1.224000000000e+05 4.000000000000e+00
29 21 12 13 12  0  0.0-4.533957690001e-04-5.115907697473e-12 0.000000000000e+00
    7.900000000000e+01-3.890625000000e+01 4.013381459161e-09 1.031510179339e+00
   -2.035871148109e-06 1.743118744344e-03 5.483627319336e-06 5.153778850555e+03
    1.296000000000e+05 1.490116119385e-08-1.768213715919e+00-1.862645149231e-09
    9.822287278034e-01 2.847500000000e+02 2.332700919682e+00-7.981761043814e-09
   -1.628639267934e-10 1.000000000000e+00 2.188000000000e+03 0.000000000000e+00
    2.400000000000e+00 0.000000000000e+00-1.024454832077e-08 7.900000000000e+01
    1.224000000000e+05 4.000000000000e+00
27 21 12 13 12  0  0.0-2.304920926690e-04-4.547473508865e-12 0.000000000000e+00
    9.900000000000e+01-3.696875000000e+01 4.316965533228e-09 9.394352930793e-01
   -1.940876245499e-06 9.818151127547e-03 5.414709448814e-06 5.153649261475e+03
    1.296000000000e+05-4.284083843231e-08-1.843164677927e+00 1.117587089539e-07
    9.739047839120e-01 2.821875000000e+02 6.263671712097e-01-8.253915237271e-09
   -3.378712165495e-10 1.000000000000e+00 2.188000000000e+03 0.000000000000e+00
    3.400000000000e+00 0.000000000000e+00 1.862645149231e-09 9.900000000000e+01
    1.224000000000e+05 4.000000000000e+00
21 21 12 13 12  0  0.0 1.536132767797e-04 1.023181539495e-12 0.000000000000e+00
    5.300000000000e+01-4.718750000000e+01 4.477686513616e-09 1.077761067337e+00
   -2.879649400711e-06 2.434490388259e-02 9.544193744659e-06 5.153610929489e+03
    1.296000000000e+05 3.054738044739e-07-8.723499719864e-01-5.327165126801e-07
    9.590476907230e-01 1.962500000000e+02-1.044983017017e+00-8.157125491304e-09
    1.307197307158e-10 1.000000000000e+00 2.188000000000e+03 0.000000000000e+00
    2.400000000000e+00 0.000000000000e+00-1.024454832077e-08 5.300000000000e+01
    1.224000000000e+05 4.000000000000e+00
13 21 12 13 12  0  0.0 2.288236282766e-04 5.798028723802e-12 0.000000000000e+00
    4.800000000000e+01-4.225000000000e+01 4.599477300977e-09 3.882663594581e-01
   -2.054497599602e-06 5.761245498434e-03 7.679685950279e-06 5.153675371170e+03
    1.296000000000e+05-6.519258022308e-08 1.432608527656e+00 4.842877388000e-08
    9.679781487467e-01 2.339687500000e+02 9.798036002271e-01-8.104980462112e-09
   -3.528718413857e-10 1.000000000000e+00 2.188000000000e+03 0.000000000000e+00
    2.400000000000e+00 0.000000000000e+00-1.117587089539e-08 4.800000000000e+01
    1.224000000000e+05 4.000000000000e+00
15 21 12 13 12  0  0.0-9.948806837201e-05 2.842170943040e-12 0.000000000000e+00
    1.020000000000e+02-3.753125000000e+01 5.635234730146e-09 1.385902756984e-02
   -1.767650246620e-06 1.391278533265e-02 6.327405571938e-06 5.153707977295e+03
    1.296000000000e+05-1.080334186554e-07 1.176319166186e+00 1.490116119385e-07
    9.293056313668e-01 2.402187500000e+02 1.063897955300e+00-8.822153192377e-09
   -2.346526313668e-10 1.000000000000e+00 2.188000000000e+03 0.000000000000e+00
    2.400000000000e+00 0.000000000000e+00-1.071020960808e-08 1.020000000000e+02
    1.224000000000e+05 4.000000000000e+00
26 21 12 13 12  0  0.0 1.645600423217e-04 3.637978807092e-12 0.000000000000e+00
    5.500000000000e+01 7.612500000000e+01 5.065568144103e-09 2.814756714167e+00
    3.973022103310e-06 6.600123015232e-03 5.293637514114e-06 5.153669883728e+03
    1.296000000000e+05-7.078051567078e-08-2.940119697135e+00-7.823109626770e-08
    9.397627892351e-01 2.679062500000e+02 3.259845225638e-01-8.426065265154e-09
    1.546492989069e-10 1.000000000000e+00 2.188000000000e+03 0.000000000000e+00
    2.400000000000e+00 0.000000000000e+00 6.984919309616e-09 5.500000000000e+01
    1.224000000000e+05 4.000000000000e+00
25 21 12 13 12  0  0.0 2.550831995904e-04 5.798028723802e-12 0.000000000000e+00
    5.300000000000e+01 6.918750000000e+01 4.540903432569e-09-2.822357335769e+00
    3.593042492867e-06 1.017555594444e-02 5.172565579414e-06 5.153741447449e+03
    1.296000000000e+05 8.754432201385e-08-2.894335578020e+00-8.381903171539e-08
    9.588918168016e-01 2.781250000000e+02 9.658961734755e-01-8.061050060806e-09
    1.603638226540e-10 1.000000000000e+00 2.188000000000e+03 0.000000000000e+00
    2.400000000000e+00 0.000000000000e+00 5.587935447693e-09 5.300000000000e+01
    1.224000000000e+05 4.000000000000e+00
